OBJECT_NAME,OBJECT_ID,EPOCH,MEAN_MOTION,ECCENTRICITY,INCLINATION,RA_OF_ASC_NODE,ARG_OF_PERICENTER,MEAN_ANOMALY,EPHEMERIS_TYPE,CLASSIFICATION_TYPE,NORAD_CAT_ID,ELEMENT_SET_NO,REV_AT_EPOCH,BSTAR,MEAN_MOTION_DOT,MEAN_MOTION_DDOT
SAUDISAT 5A,2018-102A,2026-07-23T21:32:39.768000,15.28388917,.0009557,97.3048,265.7744,15.0103,345.1418,0,U,43831,999,42128,.22237E-3,.608E-4,0
SAUDISAT 5B,2018-102C,2026-07-23T20:16:57.993888,15.28627259,.0010351,97.3157,268.8590,16.5798,343.5778,0,U,43833,999,42139,.20243E-3,.557E-4,0
GAOFEN-10R,2019-066A,2026-07-23T20:34:35.351904,14.83072011,.0006355,98.0519,158.7073,29.2132,330.9436,0,U,44622,999,36781,.14625E-3,.1136E-4,0
CARTOSAT-3,2019-081A,2026-07-23T20:14:40.706880,15.19226073,.0012218,97.4287,266.1151,31.5375,328.6589,0,U,44804,999,36903,.13338E-3,.2746E-4,0
GAOFEN-12 01,2019-082A,2026-07-23T20:19:57.382752,14.80484793,.0000627,97.8115,210.2613,78.3496,281.7787,0,U,44819,999,35951,.52759E-4,.353E-5,0
CSG-1,2019-092A,2026-07-23T20:16:12.135360,14.82162295,.0001476,97.8900,27.9186,95.0381,265.1001,0,U,44873,999,35690,.5624E-4,.396E-5,0
NEMO-HD,2020-061F,2026-07-23T20:29:48.899616,15.45282527,.0001156,97.1901,266.4491,120.3557,239.7806,0,U,46277,999,32764,.2478E-3,.11712E-3,0
SENTINEL-6A,2020-086A,2026-07-23T01:53:01.311360,12.80930280,.00077799,66.0410,60.5060,269.6212,90.3912,0,U,46984,999,26492,.9039408E-5,-.59E-6,0
CAS500-1,2021-022A,2026-07-23T20:37:05.943648,15.20145614,.0005978,97.3854,99.3609,142.0867,218.0790,0,U,47932,999,29633,.32431E-3,.6951E-4,0
GAOFEN-12 02,2021-026A,2026-07-23T20:41:34.188864,14.80321078,.0006213,97.9947,202.8964,110.0484,250.1397,0,U,48079,999,28718,.5175E-4,.342E-5,0
PLEIADES NEO 3,2021-034A,2026-07-23T12:26:04.576992,14.81670344,.0001349,97.8942,278.7624,101.3678,258.7687,0,U,48268,999,28303,.15281E-3,.1151E-4,0
PLEIADES NEO 4,2021-073E,2026-07-23T16:29:08.376000,14.81675971,.0001392,97.8935,278.9245,97.5672,262.5698,0,U,49070,999,26677,.13483E-3,.1009E-4,0
LANDSAT 9,2021-088A,2026-07-23T15:50:48.816672,14.57099940,.0001067,98.2263,274.3928,95.2306,264.9014,0,U,49260,999,25631,.69854E-4,.269E-5,0
CSG-2,2022-008A,2026-07-23T19:27:34.929216,14.82152913,.0001565,97.8905,27.8792,90.4890,269.6503,0,U,51444,999,24201,.12857E-3,.971E-5,0
GAOFEN-12 03,2022-069A,2026-07-23T19:56:14.124192,14.80084327,.0002259,97.8229,91.7690,63.3316,296.8127,0,U,52912,999,22003,.76753E-4,.531E-5,0
SWOT,2022-173A,2026-07-23T20:36:24.704064,14.00172873,.0000203,77.6119,345.8028,71.1761,288.9412,0,U,54754,999,18428,.63377E-4,.91E-6,0
GAOFEN-12 04,2023-123A,2026-07-23T20:27:05.961312,14.79787741,.0003008,97.9098,122.3192,31.6588,328.4804,0,U,57654,999,15805,.12895E-3,.919E-5,0
PARS 1,2024-039Q,2026-07-23T21:10:02.047296,15.46439825,.0008581,97.4845,186.9823,356.0674,4.0506,0,U,59065,999,13431,.26011E-3,.12808E-3,0
RESURS-P 4,2024-061A,2026-07-23T20:02:15.090432,15.32318781,.0003172,97.2759,152.1029,77.5619,282.5978,0,U,59371,999,12937,.10612E-3,.3235E-4,0
LEGION 1,2024-081A,2026-07-23T20:10:47.938368,15.16886575,.0008022,97.5003,282.3092,233.7603,126.2889,0,U,59625,999,12309,.19091E-3,.3695E-4,0
LEGION 2,2024-081B,2026-07-23T19:19:44.208192,15.16867411,.0010933,97.5004,282.3707,200.9700,159.1086,0,U,59626,999,12309,.17938E-3,.3468E-4,0
ALOS-4 (DAICHI-4),2024-123A,2026-07-23T19:34:21.466272,14.79477671,.0001569,97.9222,301.4656,98.1792,261.9597,0,U,60182,999,11129,.18575E-3,.1336E-4,0
LEGION 3,2024-146A,2026-07-23T20:07:51.602016,15.15694343,.0007248,45.0000,194.0563,22.6713,337.4484,0,U,60452,999,10758,.20243E-3,.3659E-4,0
LEGION 4,2024-146B,2026-07-23T15:22:29.843616,15.15728416,.0009637,45.0020,286.9859,165.3702,194.7457,0,U,60453,999,10640,.21101E-3,.3831E-4,0
SENTINEL-2C,2024-157A,2026-07-23T16:13:31.806912,14.30817474,.0001057,98.5678,278.9391,109.0448,251.0850,0,U,60989,999,9820,.44422E-4,.73E-6,0
IONOSFERA-M 1,2024-199A,2026-07-23T20:00:15.907680,14.22760354,.0002007,98.7124,77.6104,60.9732,299.1647,0,U,61735,999,13291,.31779E-4,.27E-6,0
IONOSFERA-M 2,2024-199B,2026-07-23T20:49:31.625760,14.22763646,.0000859,98.7122,77.5546,131.1608,228.9644,0,U,61736,999,13604,.33389E-4,.31E-6,0
PRSC-EO1,2025-012A,2026-07-23T20:24:22.222944,15.17706078,.0007309,97.4211,276.5895,122.3416,237.8526,0,U,62725,999,8375,.37381E-3,.7477E-4,0
BIOMASS,2025-090A,2026-07-23T09:03:24.183072,14.67538192,.0001467,98.0751,31.1662,87.7384,272.3989,0,U,63772,999,6599,.11721E-3,.617E-5,0
GOSAT-GW (IBUKI GW),2025-141A,2026-07-23T19:17:10.309056,14.67553893,.0001423,98.0569,141.5257,84.7309,275.4058,0,U,64694,999,5721,.14361E-4,.34E-6,0
IONOSFERA-M 3,2025-155A,2026-07-23T20:20:57.835968,14.21491966,.0002467,98.6054,165.8345,99.3285,260.8172,0,U,64876,999,5161,.39526E-4,.44E-6,0
