SAUDISAT 5A             
1 43831U 18102A   26204.89768250  .00006080  00000+0  22237-3 0  9992
2 43831  97.3048 265.7744 0009557  15.0103 345.1418 15.28388917421288
SAUDISAT 5B             
1 43833U 18102C   26204.84511567  .00005570  00000+0  20243-3 0  9994
2 43833  97.3157 268.8590 0010351  16.5798 343.5778 15.28627259421392
GAOFEN-10R              
1 44622U 19066A   26204.85735361  .00001136  00000+0  14625-3 0  9993
2 44622  98.0519 158.7073 0006355  29.2132 330.9436 14.83072011367811
CARTOSAT-3              
1 44804U 19081A   26204.84352670  .00002746  00000+0  13338-3 0  9997
2 44804  97.4287 266.1151 0012218  31.5375 328.6589 15.19226073369037
GAOFEN-12 01            
1 44819U 19082A   26204.84719193  .00000353  00000+0  52759-4 0  9994
2 44819  97.8115 210.2613 0000627  78.3496 281.7787 14.80484793359517
CSG-1                   
1 44873U 19092A   26204.84458490  .00000396  00000+0  56240-4 0  9991
2 44873  97.8900  27.9186 0001476  95.0381 265.1001 14.82162295356906
NEMO-HD                 
1 46277U 20061F   26204.85403819  .00011712  00000+0  24780-3 0  9992
2 46277  97.1901 266.4491 0001156 120.3557 239.7806 15.45282527327641
SENTINEL-6A             
1 46984U 20086A   26204.07848740 -.00000059  00000+0  90394-5 0  9993
2 46984  66.0410  60.5060 0007779 269.6212  90.3912 12.80930280264925
CAS500-1                
1 47932U 21022A   26204.85909657  .00006951  00000+0  32431-3 0  9991
2 47932  97.3854  99.3609 0005978 142.0867 218.0790 15.20145614296335
GAOFEN-12 02            
1 48079U 21026A   26204.86220126  .00000342  00000+0  51750-4 0  9990
2 48079  97.9947 202.8964 0006213 110.0484 250.1397 14.80321078287183
PLEIADES NEO 3          
1 48268U 21034A   26204.51810853  .00001151  00000+0  15281-3 0  9990
2 48268  97.8942 278.7624 0001349 101.3678 258.7687 14.81670344283035
PLEIADES NEO 4          
1 49070U 21073E   26204.68690250  .00001009  00000+0  13483-3 0  9994
2 49070  97.8935 278.9245 0001392  97.5672 262.5698 14.81675971266776
LANDSAT 9               
1 49260U 21088A   26204.66028723  .00000269  00000+0  69854-4 0  9990
2 49260  98.2263 274.3928 0001067  95.2306 264.9014 14.57099940256318
CSG-2                   
1 51444U 22008A   26204.81082094  .00000971  00000+0  12857-3 0  9998
2 51444  97.8905  27.8792 0001565  90.4890 269.6503 14.82152913242016
GAOFEN-12 03            
1 52912U 22069A   26204.83071903  .00000531  00000+0  76753-4 0  9993
2 52912  97.8229  91.7690 0002259  63.3316 296.8127 14.80084327220039
SWOT                    
1 54754U 22173A   26204.85861926  .00000091  00000+0  63377-4 0  9998
2 54754  77.6119 345.8028 0000203  71.1761 288.9412 14.00172873184286
GAOFEN-12 04            
1 57654U 23123A   26204.85215233  .00000919  00000+0  12895-3 0  9997
2 57654  97.9098 122.3192 0003008  31.6588 328.4804 14.79787741158056
PARS 1                  
1 59065U 24039Q   26204.88196814  .00012808  00000+0  26011-3 0  9993
2 59065  97.4845 186.9823 0008581 356.0674   4.0506 15.46439825134318
RESURS-P 4              
1 59371U 24061A   26204.83489688  .00003235  00000+0  10612-3 0  9991
2 59371  97.2759 152.1029 0003172  77.5619 282.5978 15.32318781129376
LEGION 1                
1 59625U 24081A   26204.84083262  .00003695  00000+0  19091-3 0  9994
2 59625  97.5003 282.3092 0008022 233.7603 126.2889 15.16886575123098
LEGION 2                
1 59626U 24081B   26204.80537278  .00003468  00000+0  17938-3 0  9998
2 59626  97.5004 282.3707 0010933 200.9700 159.1086 15.16867411123093
ALOS-4 (DAICHI-4)       
1 60182U 24123A   26204.81552623  .00001336  00000+0  18575-3 0  9996
2 60182  97.9222 301.4656 0001569  98.1792 261.9597 14.79477671111298
LEGION 3                
1 60452U 24146A   26204.83879169  .00003659  00000+0  20243-3 0  9995
2 60452  45.0000 194.0563 0007248  22.6713 337.4484 15.15694343107583
LEGION 4                
1 60453U 24146B   26204.64062319  .00003831  00000+0  21101-3 0  9992
2 60453  45.0020 286.9859 0009637 165.3702 194.7457 15.15728416106405
SENTINEL-2C             
1 60989U 24157A   26204.67606258  .00000073  00000+0  44422-4 0  9994
2 60989  98.5678 278.9391 0001057 109.0448 251.0850 14.30817474 98204
IONOSFERA-M 1           
1 61735U 24199A   26204.83351745  .00000027  00000+0  31779-4 0  9996
2 61735  98.7124  77.6104 0002007  60.9732 299.1647 14.22760354132914
IONOSFERA-M 2           
1 61736U 24199B   26204.86772715  .00000031  00000+0  33389-4 0  9998
2 61736  98.7122  77.5546 0000859 131.1608 228.9644 14.22763646136040
PRSC-EO1                
1 62725U 25012A   26204.85025721  .00007477  00000+0  37381-3 0  9995
2 62725  97.4211 276.5895 0007309 122.3416 237.8526 15.17706078 83756
BIOMASS                 
1 63772U 25090A   26204.37736323  .00000617  00000+0  11721-3 0  9997
2 63772  98.0751  31.1662 0001467  87.7384 272.3989 14.67538192 65996
GOSAT-GW (IBUKI GW)     
1 64694U 25141A   26204.80359154  .00000034  00000+0  14361-4 0  9996
2 64694  98.0569 141.5257 0001423  84.7309 275.4058 14.67553893 57211
IONOSFERA-M 3           
1 64876U 25155A   26204.84789162  .00000044  00000+0  39526-4 0  9994
2 64876  98.6054 165.8345 0002467  99.3285 260.8172 14.21491966 51614
